CCSDS_OMM_VERS = 2.0
CREATION_DATE  = 
ORIGINATOR     = 

OBJECT_NAME    = 1998-067XK
OBJECT_ID      = 1998-067XK
CENTER_NAME    = EARTH
REF_FRAME      = TEME
TIME_SYSTEM    = UTC
MEAN_ELEMENT_THEORY = SGP/SGP4

EPOCH          = 2026-01-28T20:31:29.731008
MEAN_MOTION    = 15.79246575
ECCENTRICITY   = .00039289
INCLINATION    = 51.6245
RA_OF_ASC_NODE = 256.1312
ARG_OF_PERICENTER = 172.2218
MEAN_ANOMALY   = 187.8845

EPHEMERIS_TYPE = 0
CLASSIFICATION_TYPE = U
NORAD_CAT_ID   = 65731
ELEMENT_SET_NO = 999
REV_AT_EPOCH   = 2055
BSTAR          = .12946871E-2
MEAN_MOTION_DOT = .243884E-2
MEAN_MOTION_DDOT = 0

CCSDS_OMM_VERS = 2.0
CREATION_DATE  = 
ORIGINATOR     = 

OBJECT_NAME    = RSP-03
OBJECT_ID      = 1998-067XL
CENTER_NAME    = EARTH
REF_FRAME      = TEME
TIME_SYSTEM    = UTC
MEAN_ELEMENT_THEORY = SGP/SGP4

EPOCH          = 2026-01-28T21:18:37.615968
MEAN_MOTION    = 15.89659065
ECCENTRICITY   = .00053971
INCLINATION    = 51.6201
RA_OF_ASC_NODE = 253.2985
ARG_OF_PERICENTER = 194.6285
MEAN_ANOMALY   = 165.4566

EPHEMERIS_TYPE = 0
CLASSIFICATION_TYPE = U
NORAD_CAT_ID   = 65732
ELEMENT_SET_NO = 999
REV_AT_EPOCH   = 2060
BSTAR          = .1524554E-2
MEAN_MOTION_DOT = .486198E-2
MEAN_MOTION_DDOT = 0

CCSDS_OMM_VERS = 2.0
CREATION_DATE  = 
ORIGINATOR     = 

OBJECT_NAME    = YOTSUBA-KULOVER
OBJECT_ID      = 1998-067XN
CENTER_NAME    = EARTH
REF_FRAME      = TEME
TIME_SYSTEM    = UTC
MEAN_ELEMENT_THEORY = SGP/SGP4

EPOCH          = 2026-01-28T21:19:46.886304
MEAN_MOTION    = 15.68173608
ECCENTRICITY   = .00044402
INCLINATION    = 51.6262
RA_OF_ASC_NODE = 261.6316
ARG_OF_PERICENTER = 181.9038
MEAN_ANOMALY   = 178.1942

EPHEMERIS_TYPE = 0
CLASSIFICATION_TYPE = U
NORAD_CAT_ID   = 65941
ELEMENT_SET_NO = 999
REV_AT_EPOCH   = 1723
BSTAR          = .11517768E-2
MEAN_MOTION_DOT = .132779E-2
MEAN_MOTION_DDOT = 0

CCSDS_OMM_VERS = 2.0
CREATION_DATE  = 
ORIGINATOR     = 

OBJECT_NAME    = BOTAN
OBJECT_ID      = 1998-067XP
CENTER_NAME    = EARTH
REF_FRAME      = TEME
TIME_SYSTEM    = UTC
MEAN_ELEMENT_THEORY = SGP/SGP4

EPOCH          = 2026-01-28T21:45:13.252896
MEAN_MOTION    = 15.78139785
ECCENTRICITY   = .00054728
INCLINATION    = 51.6209
RA_OF_ASC_NODE = 258.7225
ARG_OF_PERICENTER = 195.0902
MEAN_ANOMALY   = 164.9936

EPHEMERIS_TYPE = 0
CLASSIFICATION_TYPE = U
NORAD_CAT_ID   = 65942
ELEMENT_SET_NO = 999
REV_AT_EPOCH   = 1727
BSTAR          = .16092433E-2
MEAN_MOTION_DOT = .290204E-2
MEAN_MOTION_DDOT = 0

CCSDS_OMM_VERS = 2.0
CREATION_DATE  = 
ORIGINATOR     = 

OBJECT_NAME    = E-KAGAKU-1
OBJECT_ID      = 1998-067XQ
CENTER_NAME    = EARTH
REF_FRAME      = TEME
TIME_SYSTEM    = UTC
MEAN_ELEMENT_THEORY = SGP/SGP4

EPOCH          = 2026-01-28T21:20:07.289664
MEAN_MOTION    = 15.68112897
ECCENTRICITY   = .00032624
INCLINATION    = 51.6278
RA_OF_ASC_NODE = 261.6423
ARG_OF_PERICENTER = 190.6835
MEAN_ANOMALY   = 169.4092

EPHEMERIS_TYPE = 0
CLASSIFICATION_TYPE = U
NORAD_CAT_ID   = 65943
ELEMENT_SET_NO = 999
REV_AT_EPOCH   = 1723
BSTAR          = .11486731E-2
MEAN_MOTION_DOT = .132052E-2
MEAN_MOTION_DDOT = 0

CCSDS_OMM_VERS = 2.0
CREATION_DATE  = 
ORIGINATOR     = 

OBJECT_NAME    = HRC MONOBLOCK CAMERA
OBJECT_ID      = 1998-067XR
CENTER_NAME    = EARTH
REF_FRAME      = TEME
TIME_SYSTEM    = UTC
MEAN_ELEMENT_THEORY = SGP/SGP4

EPOCH          = 2026-01-28T22:07:06.524256
MEAN_MOTION    = 15.58137266
ECCENTRICITY   = .00003019
INCLINATION    = 51.6296
RA_OF_ASC_NODE = 265.6074
ARG_OF_PERICENTER = 54.7913
MEAN_ANOMALY   = 305.3108

EPHEMERIS_TYPE = 0
CLASSIFICATION_TYPE = U
NORAD_CAT_ID   = 66052
ELEMENT_SET_NO = 999
REV_AT_EPOCH   = 1618
BSTAR          = .74244034E-3
MEAN_MOTION_DOT = .56924E-3
MEAN_MOTION_DDOT = 0

CCSDS_OMM_VERS = 2.0
CREATION_DATE  = 
ORIGINATOR     = 

OBJECT_NAME    = HTV-X1
OBJECT_ID      = 2025-241A
CENTER_NAME    = EARTH
REF_FRAME      = TEME
TIME_SYSTEM    = UTC
MEAN_ELEMENT_THEORY = SGP/SGP4

EPOCH          = 2026-01-28T21:15:55.109664
MEAN_MOTION    = 15.48254051
ECCENTRICITY   = .0011179
INCLINATION    = 51.6319
RA_OF_ASC_NODE = 269.1180
ARG_OF_PERICENTER = 40.2849
MEAN_ANOMALY   = 319.8966

EPHEMERIS_TYPE = 0
CLASSIFICATION_TYPE = U
NORAD_CAT_ID   = 66174
ELEMENT_SET_NO = 999
REV_AT_EPOCH   = 51
BSTAR          = .21299538E-3
MEAN_MOTION_DOT = .11021E-3
MEAN_MOTION_DDOT = 0

CCSDS_OMM_VERS = 2.0
CREATION_DATE  = 
ORIGINATOR     = 

OBJECT_NAME    = SZ-21 MODULE
OBJECT_ID      = 2025-246C
CENTER_NAME    = EARTH
REF_FRAME      = TEME
TIME_SYSTEM    = UTC
MEAN_ELEMENT_THEORY = SGP/SGP4

EPOCH          = 2026-01-28T12:56:59.795808
MEAN_MOTION    = 15.65525852
ECCENTRICITY   = .00031745
INCLINATION    = 41.4756
RA_OF_ASC_NODE = 89.9445
ARG_OF_PERICENTER = 251.6135
MEAN_ANOMALY   = 108.4360

EPHEMERIS_TYPE = 0
CLASSIFICATION_TYPE = U
NORAD_CAT_ID   = 66515
ELEMENT_SET_NO = 999
REV_AT_EPOCH   = 1177
BSTAR          = .38491144E-3
MEAN_MOTION_DOT = .39598E-3
MEAN_MOTION_DDOT = 0

CCSDS_OMM_VERS = 2.0
CREATION_DATE  = 
ORIGINATOR     = 

OBJECT_NAME    = SHENZHOU-22
OBJECT_ID      = 2025-272A
CENTER_NAME    = EARTH
REF_FRAME      = TEME
TIME_SYSTEM    = UTC
MEAN_ELEMENT_THEORY = SGP/SGP4

EPOCH          = 2026-01-28T13:43:40.256544
MEAN_MOTION    = 15.61237451
ECCENTRICITY   = .0009404
INCLINATION    = 41.4673
RA_OF_ASC_NODE = 91.9689
ARG_OF_PERICENTER = 23.4558
MEAN_ANOMALY   = 336.6709

EPHEMERIS_TYPE = 0
CLASSIFICATION_TYPE = U
NORAD_CAT_ID   = 66645
ELEMENT_SET_NO = 999
REV_AT_EPOCH   = 26764
BSTAR          = .32261599E-3
MEAN_MOTION_DOT = .27953E-3
MEAN_MOTION_DDOT = 0

CCSDS_OMM_VERS = 2.0
CREATION_DATE  = 
ORIGINATOR     = 

OBJECT_NAME    = SOYUZ-MS 28
OBJECT_ID      = 2025-275A
CENTER_NAME    = EARTH
REF_FRAME      = TEME
TIME_SYSTEM    = UTC
MEAN_ELEMENT_THEORY = SGP/SGP4

EPOCH          = 2026-01-28T21:15:55.109664
MEAN_MOTION    = 15.48254051
ECCENTRICITY   = .0011179
INCLINATION    = 51.6319
RA_OF_ASC_NODE = 269.1180
ARG_OF_PERICENTER = 40.2849
MEAN_ANOMALY   = 319.8966

EPHEMERIS_TYPE = 0
CLASSIFICATION_TYPE = U
NORAD_CAT_ID   = 66664
ELEMENT_SET_NO = 999
REV_AT_EPOCH   = 128
BSTAR          = .21299538E-3
MEAN_MOTION_DOT = .11021E-3
MEAN_MOTION_DDOT = 0

CCSDS_OMM_VERS = 2.0
CREATION_DATE  = 
ORIGINATOR     = 

OBJECT_NAME    = DUPLEX
OBJECT_ID      = 1998-067XS
CENTER_NAME    = EARTH
REF_FRAME      = TEME
TIME_SYSTEM    = UTC
MEAN_ELEMENT_THEORY = SGP/SGP4

EPOCH          = 2026-01-28T20:45:21.168576
MEAN_MOTION    = 15.53421469
ECCENTRICITY   = .00017073
INCLINATION    = 51.6307
RA_OF_ASC_NODE = 268.2270
ARG_OF_PERICENTER = 71.3870
MEAN_ANOMALY   = 288.7306

EPHEMERIS_TYPE = 0
CLASSIFICATION_TYPE = U
NORAD_CAT_ID   = 66906
ELEMENT_SET_NO = 999
REV_AT_EPOCH   = 893
BSTAR          = .6067376E-3
MEAN_MOTION_DOT = .3886E-3
MEAN_MOTION_DDOT = 0

CCSDS_OMM_VERS = 2.0
CREATION_DATE  = 
ORIGINATOR     = 

OBJECT_NAME    = 1998-067XT
OBJECT_ID      = 1998-067XT
CENTER_NAME    = EARTH
REF_FRAME      = TEME
TIME_SYSTEM    = UTC
MEAN_ELEMENT_THEORY = SGP/SGP4

EPOCH          = 2026-01-28T21:34:30.994176
MEAN_MOTION    = 15.59300283
ECCENTRICITY   = .00023168
INCLINATION    = 51.6286
RA_OF_ASC_NODE = 266.9551
ARG_OF_PERICENTER = 146.9394
MEAN_ANOMALY   = 213.1744

EPHEMERIS_TYPE = 0
CLASSIFICATION_TYPE = U
NORAD_CAT_ID   = 66907
ELEMENT_SET_NO = 999
REV_AT_EPOCH   = 895
BSTAR          = .14487252E-2
MEAN_MOTION_DOT = .11748E-2
MEAN_MOTION_DDOT = 0

